TEVEL2-6                
1 63215U 25052F   26068.64958975  .00021046  00000+0  70909-3 0  9996
2 63215  97.4016 325.0381 0004769  95.6604 264.5181 15.30760889 54861
STARLINK-34123          
1 63891U 25095B   26068.62360240  .00030308  00000+0  11051-2 0  9996
2 63891  43.0055 176.9552 0002676 309.0664  50.9949 15.27615729 47776
